ION SCV-008             
1 55051U 23001AU  26068.82429008  .00008336  00000+0  31423-3 0  9992
2 55051  97.5676 163.6060 0015192   8.5420 351.6074 15.27226640176169
STARLINK-35984          
1 66814U 25278Z   26068.17476774  .00024951  00000+0  91288-3 0  9995
2 66814  43.0013 116.9847 0002461 285.4958  74.5622 15.27588008 15138
